IRIDIUM 159             
1 43578U 18061K   23363.56441752  .00000449  00000+0  15344-3 0  9990
2 43578  86.3959  73.1074 0002135 100.0740 260.0697 14.34215508284292
IRIDIUM 180             
1 43922U 19002A   23363.56391292  .00000392  00000+0  13302-3 0  9991
2 43922  86.3967   9.9818 0002083  96.7077 263.4356 14.34214329259902
IRIDIUM 176             
1 43923U 19002B   23363.51883658  .00000039  00000+0  22494-5 0  9991
2 43923  86.6099  10.0308 0002413  90.7391 269.4103 14.72217058266738
IRIDIUM 168             
1 43924U 19002C   23363.76688272  .00000086  00000+0  23679-4 0  9991
2 43924  86.3969   9.9485 0002129  93.0716 267.0723 14.34212569259910
IRIDIUM 173             
1 43925U 19002D   23363.54489205  .00000393  00000+0  13345-3 0  9992
2 43925  86.3971   9.9673 0002367  90.1753 269.9714 14.34211714259862
IRIDIUM 169             
1 43926U 19002E   23363.57460493  .00000439  00000+0  13694-3 0  9992
2 43926  86.4217  41.5616 0004925  81.2103 278.9653 14.38612826260742
IRIDIUM 172             
1 43927U 19002F   23363.53854959  .00000037  00000+0  61452-5 0  9994
2 43927  86.3967   9.9752 0002086  90.6542 269.4893 14.34212322259876
IRIDIUM 175             
1 43928U 19002G   23363.51286430  .00001524  00000+0  23781-3 0  9999
2 43928  86.1522 352.8281 0002615  85.5148 274.6368 14.72219024266727
